ZACUBE-1 (TSHEPISOSAT)  
1 39417U 13066B   26064.86179431  .00006518  00000+0  51561-3 0  9997
2 39417  97.8184  26.6670 0041954 232.8651 126.8737 15.00278348665234
WNISAT-1                
1 39423U 13066H   26064.99330392  .00002129  00000+0  39586-3 0  9990
2 39423  97.7034 221.5718 0163321 196.5211 163.0632 14.57854390651694
TRITON-1                
1 39427U 13066M   26065.29337453  .00002664  00000+0  32631-3 0  9991
2 39427  97.8298 337.4623 0089918 208.8880 150.7339 14.81173005658857
GOMX-1                  
1 39430U 13066Q   26065.28312162  .00002039  00000+0  31236-3 0  9990
2 39430  97.6565 272.2007 0130473  48.3448 312.8843 14.69081439654805
CUBEBUG-2 (LO-74)       
1 39440U 13066AA  26065.27945923  .00007469  00000+0  70155-3 0  9992
2 39440  97.8820  13.9474 0059118  10.4251 349.8178 14.92905655661639
NEE-02 KRYSAOR          
1 39441U 13066AB  26065.28092759  .00003887  00000+0  43143-3 0  9991
2 39441  97.8820   5.3125 0067982  48.0275 312.6704 14.86134376660919
FUNCUBE-1 (AO-73)       
1 39444U 13066AE  26064.85849596  .00011786  00000+0  76148-3 0  9993
2 39444  97.8186  34.3315 0036865 192.4906 167.5412 15.07824461664081
UWE-3                   
1 39446U 13066AG  26064.85072563  .00007116  00000+0  62263-3 0  9992
2 39446  97.8596  20.3678 0048727 305.6188  54.0499 14.96126332662122
BRITE-CA1 (TORONTO)     
1 40020U 14033L   26065.29924344  .00001869  00000+0  28908-3 0  9996
2 40020  97.9561 196.2372 0077792 245.9245 113.3810 14.72451664627077
DUCHIFAT-1              
1 40021U 14033M   26065.08356619  .00055499  00000+0  10109-2 0  9999
2 40021  98.0634 111.0868 0006460  95.0854 265.1132 15.49284424639710
NANOSATC-BR1            
1 40024U 14033Q   26064.98811422  .00019134  00000+0  70333-3 0  9990
2 40024  98.0845  88.4487 0004234 158.3093 201.8325 15.27949403638201
QB50P1                  
1 40025U 14033R   26065.27885812  .00011732  00000+0  60636-3 0  9999
2 40025  98.1008  69.3311 0007908 207.3116 152.7701 15.16428429637423
QB50P2                  
1 40032U 14033Y   26065.22575246  .00010014  00000+0  56127-3 0  9991
2 40032  98.0734  55.8331 0008330 152.2858 207.8817 15.13588599637083
PERSEUS-M2              
1 40037U 14033AD  26065.28076383  .00003147  00000+0  29206-3 0  9997
2 40037  97.9877  13.8214 0010154 284.6585  75.3509 14.95144035635404
PERSEUS-M1              
1 40039U 14033AF  26065.26112990  .00003602  00000+0  33268-3 0  9991
2 40039  97.9559   7.7939 0009906 281.5384  78.4723 14.95233982635250
POLYITAN-1              
1 40042U 14033AJ  26065.01056621  .00022272  00000+0  78282-3 0  9995
2 40042  98.1047  81.7660 0009106 138.2976 221.8957 15.29356282637802
