[{"OBJECT_NAME":"ZACUBE-1 (TSHEPISOSAT)","OBJECT_ID":"2013-066B","EPOCH":"2026-03-05T20:40:59.028384","MEAN_MOTION":15.00278348,"ECCENTRICITY":0.00419543,"INCLINATION":97.8184,"RA_OF_ASC_NODE":26.667,"ARG_OF_PERICENTER":232.8651,"MEAN_ANOMALY":126.8737,"EPHEMERIS_TYPE":0,"CLASSIFICATION_TYPE":"U","NORAD_CAT_ID":39417,"ELEMENT_SET_NO":999,"REV_AT_EPOCH":66523,"BSTAR":0.00051561119,"MEAN_MOTION_DOT":6.518e-5,"MEAN_MOTION_DDOT":0},{"OBJECT_NAME":"WNISAT-1","OBJECT_ID":"2013-066H","EPOCH":"2026-03-05T23:50:21.458688","MEAN_MOTION":14.5785439,"ECCENTRICITY":0.01633214,"INCLINATION":97.7034,"RA_OF_ASC_NODE":221.5718,"ARG_OF_PERICENTER":196.5211,"MEAN_ANOMALY":163.0632,"EPHEMERIS_TYPE":0,"CLASSIFICATION_TYPE":"U","NORAD_CAT_ID":39423,"ELEMENT_SET_NO":999,"REV_AT_EPOCH":65169,"BSTAR":0.00039585924,"MEAN_MOTION_DOT":2.129e-5,"MEAN_MOTION_DDOT":0},{"OBJECT_NAME":"TRITON-1","OBJECT_ID":"2013-066M","EPOCH":"2026-03-06T07:02:27.559392","MEAN_MOTION":14.81173005,"ECCENTRICITY":0.00899184,"INCLINATION":97.8298,"RA_OF_ASC_NODE":337.4623,"ARG_OF_PERICENTER":208.888,"MEAN_ANOMALY":150.7339,"EPHEMERIS_TYPE":0,"CLASSIFICATION_TYPE":"U","NORAD_CAT_ID":39427,"ELEMENT_SET_NO":999,"REV_AT_EPOCH":65885,"BSTAR":0.0003263053,"MEAN_MOTION_DOT":2.664e-5,"MEAN_MOTION_DDOT":0},{"OBJECT_NAME":"GOMX-1","OBJECT_ID":"2013-066Q","EPOCH":"2026-03-06T06:47:41.707968","MEAN_MOTION":14.69081439,"ECCENTRICITY":0.01304736,"INCLINATION":97.6565,"RA_OF_ASC_NODE":272.2007,"ARG_OF_PERICENTER":48.3448,"MEAN_ANOMALY":312.8843,"EPHEMERIS_TYPE":0,"CLASSIFICATION_TYPE":"U","NORAD_CAT_ID":39430,"ELEMENT_SET_NO":999,"REV_AT_EPOCH":65480,"BSTAR":0.00031235599,"MEAN_MOTION_DOT":2.039e-5,"MEAN_MOTION_DDOT":0},{"OBJECT_NAME":"CUBEBUG-2 (LO-74)","OBJECT_ID":"2013-066AA","EPOCH":"2026-03-06T06:42:25.277472","MEAN_MOTION":14.92905655,"ECCENTRICITY":0.00591185,"INCLINATION":97.882,"RA_OF_ASC_NODE":13.9474,"ARG_OF_PERICENTER":10.4251,"MEAN_ANOMALY":349.8178,"EPHEMERIS_TYPE":0,"CLASSIFICATION_TYPE":"U","NORAD_CAT_ID":39440,"ELEMENT_SET_NO":999,"REV_AT_EPOCH":66163,"BSTAR":0.00070155336,"MEAN_MOTION_DOT":7.469e-5,"MEAN_MOTION_DDOT":0},{"OBJECT_NAME":"NEE-02 KRYSAOR","OBJECT_ID":"2013-066AB","EPOCH":"2026-03-06T06:44:32.143776","MEAN_MOTION":14.86134376,"ECCENTRICITY":0.00679825,"INCLINATION":97.882,"RA_OF_ASC_NODE":5.3125,"ARG_OF_PERICENTER":48.0275,"MEAN_ANOMALY":312.6704,"EPHEMERIS_TYPE":0,"CLASSIFICATION_TYPE":"U","NORAD_CAT_ID":39441,"ELEMENT_SET_NO":999,"REV_AT_EPOCH":66091,"BSTAR":0.0004314338,"MEAN_MOTION_DOT":3.887e-5,"MEAN_MOTION_DDOT":0},{"OBJECT_NAME":"FUNCUBE-1 (AO-73)","OBJECT_ID":"2013-066AE","EPOCH":"2026-03-05T20:36:14.050944","MEAN_MOTION":15.07824461,"ECCENTRICITY":0.00368655,"INCLINATION":97.8186,"RA_OF_ASC_NODE":34.3315,"ARG_OF_PERICENTER":192.4906,"MEAN_ANOMALY":167.5412,"EPHEMERIS_TYPE":0,"CLASSIFICATION_TYPE":"U","NORAD_CAT_ID":39444,"ELEMENT_SET_NO":999,"REV_AT_EPOCH":66408,"BSTAR":0.00076147608,"MEAN_MOTION_DOT":0.00011786,"MEAN_MOTION_DDOT":0},{"OBJECT_NAME":"UWE-3","OBJECT_ID":"2013-066AG","EPOCH":"2026-03-05T20:25:02.694432","MEAN_MOTION":14.96126332,"ECCENTRICITY":0.00487278,"INCLINATION":97.8596,"RA_OF_ASC_NODE":20.3678,"ARG_OF_PERICENTER":305.6188,"MEAN_ANOMALY":54.0499,"EPHEMERIS_TYPE":0,"CLASSIFICATION_TYPE":"U","NORAD_CAT_ID":39446,"ELEMENT_SET_NO":999,"REV_AT_EPOCH":66212,"BSTAR":0.00062262764,"MEAN_MOTION_DOT":7.116e-5,"MEAN_MOTION_DDOT":0},{"OBJECT_NAME":"BRITE-CA1 (TORONTO)","OBJECT_ID":"2014-033L","EPOCH":"2026-03-06T07:10:54.633216","MEAN_MOTION":14.72451664,"ECCENTRICITY":0.00777923,"INCLINATION":97.9561,"RA_OF_ASC_NODE":196.2372,"ARG_OF_PERICENTER":245.9245,"MEAN_ANOMALY":113.381,"EPHEMERIS_TYPE":0,"CLASSIFICATION_TYPE":"U","NORAD_CAT_ID":40020,"ELEMENT_SET_NO":999,"REV_AT_EPOCH":62707,"BSTAR":0.00028907672,"MEAN_MOTION_DOT":1.869e-5,"MEAN_MOTION_DDOT":0},{"OBJECT_NAME":"DUCHIFAT-1","OBJECT_ID":"2014-033M","EPOCH":"2026-03-06T02:00:20.118816","MEAN_MOTION":15.49284424,"ECCENTRICITY":0.000646,"INCLINATION":98.0634,"RA_OF_ASC_NODE":111.0868,"ARG_OF_PERICENTER":95.0854,"MEAN_ANOMALY":265.1132,"EPHEMERIS_TYPE":0,"CLASSIFICATION_TYPE":"U","NORAD_CAT_ID":40021,"ELEMENT_SET_NO":999,"REV_AT_EPOCH":63971,"BSTAR":0.00101087,"MEAN_MOTION_DOT":0.00055499,"MEAN_MOTION_DDOT":0},{"OBJECT_NAME":"NANOSATC-BR1","OBJECT_ID":"2014-033Q","EPOCH":"2026-03-05T23:42:53.068608","MEAN_MOTION":15.27949403,"ECCENTRICITY":0.0004234,"INCLINATION":98.0845,"RA_OF_ASC_NODE":88.4487,"ARG_OF_PERICENTER":158.3093,"MEAN_ANOMALY":201.8325,"EPHEMERIS_TYPE":0,"CLASSIFICATION_TYPE":"U","NORAD_CAT_ID":40024,"ELEMENT_SET_NO":999,"REV_AT_EPOCH":63820,"BSTAR":0.00070333447,"MEAN_MOTION_DOT":0.00019134,"MEAN_MOTION_DDOT":0},{"OBJECT_NAME":"QB50P1","OBJECT_ID":"2014-033R","EPOCH":"2026-03-06T06:41:33.341568","MEAN_MOTION":15.16428429,"ECCENTRICITY":0.00079085,"INCLINATION":98.1008,"RA_OF_ASC_NODE":69.3311,"ARG_OF_PERICENTER":207.3116,"MEAN_ANOMALY":152.7701,"EPHEMERIS_TYPE":0,"CLASSIFICATION_TYPE":"U","NORAD_CAT_ID":40025,"ELEMENT_SET_NO":999,"REV_AT_EPOCH":63742,"BSTAR":0.00060635637,"MEAN_MOTION_DOT":0.00011732,"MEAN_MOTION_DDOT":0},{"OBJECT_NAME":"QB50P2","OBJECT_ID":"2014-033Y","EPOCH":"2026-03-06T05:25:05.012544","MEAN_MOTION":15.13588599,"ECCENTRICITY":0.00083302,"INCLINATION":98.0734,"RA_OF_ASC_NODE":55.8331,"ARG_OF_PERICENTER":152.2858,"MEAN_ANOMALY":207.8817,"EPHEMERIS_TYPE":0,"CLASSIFICATION_TYPE":"U","NORAD_CAT_ID":40032,"ELEMENT_SET_NO":999,"REV_AT_EPOCH":63708,"BSTAR":0.0005612711,"MEAN_MOTION_DOT":0.00010014,"MEAN_MOTION_DDOT":0},{"OBJECT_NAME":"PERSEUS-M2","OBJECT_ID":"2014-033AD","EPOCH":"2026-03-06T06:44:17.994912","MEAN_MOTION":14.95144035,"ECCENTRICITY":0.00101547,"INCLINATION":97.9877,"RA_OF_ASC_NODE":13.8214,"ARG_OF_PERICENTER":284.6585,"MEAN_ANOMALY":75.3509,"EPHEMERIS_TYPE":0,"CLASSIFICATION_TYPE":"U","NORAD_CAT_ID":40037,"ELEMENT_SET_NO":999,"REV_AT_EPOCH":63540,"BSTAR":0.00029206412,"MEAN_MOTION_DOT":3.147e-5,"MEAN_MOTION_DDOT":0},{"OBJECT_NAME":"PERSEUS-M1","OBJECT_ID":"2014-033AF","EPOCH":"2026-03-06T06:16:01.623360","MEAN_MOTION":14.95233982,"ECCENTRICITY":0.00099064,"INCLINATION":97.9559,"RA_OF_ASC_NODE":7.7939,"ARG_OF_PERICENTER":281.5384,"MEAN_ANOMALY":78.4723,"EPHEMERIS_TYPE":0,"CLASSIFICATION_TYPE":"U","NORAD_CAT_ID":40039,"ELEMENT_SET_NO":999,"REV_AT_EPOCH":63525,"BSTAR":0.0003326831,"MEAN_MOTION_DOT":3.602e-5,"MEAN_MOTION_DDOT":0},{"OBJECT_NAME":"POLYITAN-1","OBJECT_ID":"2014-033AJ","EPOCH":"2026-03-06T00:15:12.920544","MEAN_MOTION":15.29356282,"ECCENTRICITY":0.00091063,"INCLINATION":98.1047,"RA_OF_ASC_NODE":81.766,"ARG_OF_PERICENTER":138.2976,"MEAN_ANOMALY":221.8957,"EPHEMERIS_TYPE":0,"CLASSIFICATION_TYPE":"U","NORAD_CAT_ID":40042,"ELEMENT_SET_NO":999,"REV_AT_EPOCH":63780,"BSTAR":0.00078282034,"MEAN_MOTION_DOT":0.00022272,"MEAN_MOTION_DDOT":0}]
